NORAD_CAT_ID,OBJECT_NAME,OBJECT_TYPE,EPOCH,MEAN_MOTION,ECCENTRICITY,INCLINATION,RA_OF_ASC_NODE,ARG_OF_PERICENTER,MEAN_ANOMALY,BSTAR,MEAN_MOTION_DOT,MEAN_MOTION_DDOT,TLE_LINE0,TLE_LINE1,TLE_LINE2,SEMIMAJOR_AXIS,PERIOD,APOGEE,PERIGEE,DECAYED
51784.0,STARLINK-3632,PAYLOAD,2022-12-24 00:13:58,15.08846061,0.0002468,53.2153,208.9995,32.0344,328.0798,0.00018678,2.686e-05,0.0,0 STARLINK-3632,1 51784U 22017S   22358.00970439  .00002686  00000-0  18678-3 0  9994,2 51784  53.2153 208.9995 0002468  32.0344 328.0798 15.08846061 47045,6917.861999999999,95.437,541.434,538.02,0.0
51784.0,STARLINK-3632,PAYLOAD,2022-12-24 20:53:58,15.08853933,0.0002294,53.2152,205.133,37.6857,322.4295,0.00017308,2.468e-05,0.0,0 STARLINK-3632,1 51784U 22017S   22358.87081510  .00002468  00000-0  17308-3 0  9999,2 51784  53.2152 205.1330 0002294  37.6857 322.4295 15.08853933 45520,6917.8380000000025,95.437,541.29,538.116,0.0
51784.0,STARLINK-3632,PAYLOAD,2022-12-25 06:26:17,15.08842799,0.0002351,53.2151,203.349,35.9989,324.1161,9.1046e-05,1.161e-05,0.0,0 STARLINK-3632,1 51784U 22017S   22359.26825977  .00001161  00000-0  91046-4 0  9997,2 51784  53.2151 203.3490 0002351  35.9989 324.1161 15.08842799 47236,6917.871999999999,95.437,541.363,538.11,0.0
51784.0,STARLINK-3632,PAYLOAD,2022-12-25 12:47:50,15.08842552,0.0002362,53.2149,202.1591,37.3628,322.7528,5.8369e-05,6.41e-06,0.0,0 STARLINK-3632,1 51784U 22017S   22359.53321906  .00000641  00000-0  58369-4 0  9993,2 51784  53.2149 202.1591 0002362  37.3628 322.7528 15.08842552 45629,6917.873000000001,95.437,541.372,538.104,0.0
51784.0,STARLINK-3632,PAYLOAD,2022-12-25 20:44:45,15.08842666,0.0002359,53.2149,200.6722,38.0219,322.0939,5.4941e-06,-2.01e-06,0.0,0 STARLINK-3632,1 51784U 22017S   22359.86441737 -.00000201  00000-0  54941-5 0  9990,2 51784  53.2149 200.6722 0002359  38.0219 322.0939 15.08842666 45678,6917.871999999999,95.437,541.369,538.105,0.0
51784.0,STARLINK-3632,PAYLOAD,2022-12-26 12:38:36,15.0884785,0.0002338,53.2153,197.6982,40.3657,319.7509,3.8911e-05,3.31e-06,0.0,0 STARLINK-3632,1 51784U 22017S   22360.52681279  .00000331  00000-0  38911-4 0  9993,2 51784  53.2153 197.6982 0002338  40.3657 319.7509 15.08847850 45772,6917.856,95.437,541.339,538.104,0.0
51784.0,STARLINK-3632,PAYLOAD,2022-12-26 14:13:59,15.08848797,0.000235,53.2154,197.4009,39.2153,320.9009,1.7607999999999998e-05,-8e-08,0.0,0 STARLINK-3632,1 51784U 22017S   22360.59305211 -.00000008  00000-0  17608-4 0  9991,2 51784  53.2154 197.4009 0002350  39.2153 320.9009 15.08848797 47438,6917.854,95.437,541.344,538.0930000000002,0.0
51784.0,STARLINK-3632,PAYLOAD,2022-12-27 07:43:13,15.08851745,0.0002412,53.2154,194.1299,40.5938,319.5233,0.000175,2.499e-05,0.0,0 STARLINK-3632,1 51784U 22017S   22361.32168732  .00002499  00000-0  17500-3 0  9993,2 51784  53.2154 194.1299 0002412  40.5938 319.5233 15.08851745 45896,6917.844,95.437,541.378,538.0409999999998,0.0
51784.0,STARLINK-3632,PAYLOAD,2022-12-27 15:40:09,15.08847071,0.0002364,53.2152,192.6427,40.7337,319.3831,0.00013648,1.885e-05,0.0,0 STARLINK-3632,1 51784U 22017S   22361.65288938  .00001885  00000-0  13648-3 0  9997,2 51784  53.2152 192.6427 0002364  40.7337 319.3831 15.08847071 45946,6917.859,95.437,541.359,538.0880000000002,0.0
51784.0,STARLINK-3632,PAYLOAD,2022-12-28 12:20:10,15.08841234,0.0002399999999999,53.2151,188.7769,42.3761,317.7416,5.584299999999998e-06,-2e-06,0.0,0 STARLINK-3632,1 51784U 22017S   22362.51401104 -.00000200  00000-0  55843-5 0  9991,2 51784  53.2151 188.7769 0002400  42.3761 317.7416 15.08841234 46071,6917.877,95.437,541.4019999999998,538.081,0.0
51784.0,STARLINK-3632,PAYLOAD,2022-12-28 15:30:56,15.08842241,0.0002398,53.2152,188.1822,42.0403,318.0772,2.8995e-05,1.73e-06,0.0,0 STARLINK-3632,1 51784U 22017S   22362.64649040  .00000173  00000-0  28995-4 0  9993,2 51784  53.2152 188.1822 0002398  42.0403 318.0772 15.08842241 46092,6917.874,95.437,541.3969999999998,538.08,0.0
51784.0,STARLINK-3632,PAYLOAD,2022-12-29 12:10:57,15.08841057,0.0002269,53.2179,184.3196,38.6585,321.4569,2.6225e-05,1.29e-06,0.0,0 STARLINK-3632,1 51784U 22017S   22363.50761231  .00000129  00000-0  26225-4 0  9991,2 51784  53.2179 184.3196 0002269  38.6585 321.4569 15.08841057 46223,6917.877,95.437,541.312,538.172,0.0
51784.0,STARLINK-3632,PAYLOAD,2022-12-29 15:21:44,15.08838917,0.000214,53.2162,183.7214,43.1509,316.9651,-0.00014496,-2.595e-05,0.0,0 STARLINK-3632,1 51784U 22017S   22363.64009690 -.00002595  00000-0 -14496-3 0  9997,2 51784  53.2162 183.7214 0002140  43.1509 316.9651 15.08838917 47890,6917.884,95.438,541.229,538.268,0.0
51784.0,STARLINK-3632,PAYLOAD,2022-12-30 12:01:45,15.08836968,0.0002396,53.2162,179.8559,42.6166,317.5012,1.1125e-05,-1.11e-06,0.0,0 STARLINK-3632,1 51784U 22017S   22364.50121907 -.00000111  00000-0  11125-4 0  9997,2 51784  53.2162 179.8559 0002396  42.6166 317.5012 15.08836968 46378,6917.89,95.438,541.4119999999998,538.097,0.0
51784.0,STARLINK-3632,PAYLOAD,2022-12-30 18:23:17,15.08838419,0.0002369,53.2161,178.6662,44.507,315.6112,1.8918e-05,1.3e-07,0.0,0 STARLINK-3632,1 51784U 22017S   22364.76617849  .00000013  00000-0  18918-4 0  9997,2 51784  53.2161 178.6662 0002369  44.5070 315.6112 15.08838419 48065,6917.885,95.438,541.389,538.111,0.0
51784.0,STARLINK-3632,PAYLOAD,2022-12-31 18:14:04,15.08842967,0.0002461999999999,53.2163,174.2062,43.6564,316.4623,0.00020887,3.038e-05,0.0,0 STARLINK-3632,1 51784U 22017S   22365.75977225  .00003038  00000-0  20887-3 0  9991,2 51784  53.2163 174.2062 0002462  43.6564 316.4623 15.08842967 46567,6917.871,95.437,541.439,538.033,0.0
51784.0,STARLINK-3632,PAYLOAD,2022-12-31 21:24:50,15.08844852,0.0002474,53.2163,173.6114,43.5142,316.6045,0.00022541,3.301e-05,0.0,0 STARLINK-3632,1 51784U 22017S   22365.89225139  .00003301  00000-0  22541-3 0  9998,2 51784  53.2163 173.6114 0002474  43.5142 316.6045 15.08844852 48233,6917.866,95.437,541.442,538.019,0.0
51784.0,STARLINK-3632,PAYLOAD,2023-01-01 11:43:19,15.08843744,0.0002541,53.2154,170.9349,44.4704,315.6492,0.00012318,1.673e-05,0.0,0 STARLINK-3632,1 51784U 22017S   23001.48841523  .00001673  00000-0  12318-3 0  9993,2 51784  53.2154 170.9349 0002541  44.4704 315.6492 15.08843744 48326,6917.869000000002,95.437,541.492,537.976,0.0
51784.0,STARLINK-3632,PAYLOAD,2023-01-01 18:04:51,15.08845682,0.0002546999999999,53.2153,169.7456,44.0542,316.0653,0.00012754,1.742e-05,0.0,0 STARLINK-3632,1 51784U 22017S   23001.75337354  .00001742  00000-0  12754-3 0  9996,2 51784  53.2153 169.7456 0002547  44.0542 316.0653 15.08845682 46710,6917.863,95.437,541.49,537.966,0.0
51784.0,STARLINK-3632,PAYLOAD,2023-01-02 06:47:56,15.08838639,0.0002573,53.2155,167.3668,42.0442,318.0748,-9.0623e-05,-1.73e-05,0.0,0 STARLINK-3632,1 51784U 22017S   23002.28329682 -.00001730  00000-0 -90623-4 0  9991,2 51784  53.2155 167.3668 0002573  42.0442 318.0748 15.08838639 48440,6917.885,95.438,541.53,537.97,0.0
51784.0,STARLINK-3632,PAYLOAD,2023-01-02 13:09:29,15.08838418,0.0002566999999999,53.2154,166.1773,42.1059,318.013,-8.665100000000001e-05,-1.667e-05,0.0,0 STARLINK-3632,1 51784U 22017S   23002.54825662 -.00001667  00000-0 -86651-4 0  9994,2 51784  53.2154 166.1773 0002567  42.1059 318.0130 15.08838418 46832,6917.885,95.438,541.526,537.974,0.0
51784.0,STARLINK-3632,PAYLOAD,2023-01-02 17:55:38,15.08842409,0.0002543,53.2166,165.2854,41.9027,318.216,1.76e-06,-2.6e-06,0.0,0 STARLINK-3632,1 51784U 22017S   23002.74697877 -.00000260  00000-0  17600-5 0  9997,2 51784  53.2166 165.2854 0002543  41.9027 318.2160 15.08842409 46864,6917.873000000001,95.437,541.497,537.979,0.0
51784.0,STARLINK-3632,PAYLOAD,2023-01-03 13:00:16,15.0884659,0.0002518,53.2167,161.7169,42.8382,317.2806,0.00012895,1.765e-05,0.0,0 STARLINK-3632,1 51784U 22017S   23003.54185259  .00001765  00000-0  12895-3 0  9991,2 51784  53.2167 161.7169 0002518  42.8382 317.2806 15.08846590 48639,6917.86,95.437,541.467,537.9830000000002,0.0
51784.0,STARLINK-3632,PAYLOAD,2023-01-03 19:21:49,15.08839115,0.0002566,53.2168,160.5277,39.9466,320.1715,7.1312e-05,8.47e-06,0.0,0 STARLINK-3632,1 51784U 22017S   23003.80681899  .00000847  00000-0  71312-4 0  9991,2 51784  53.2168 160.5277 0002566  39.9466 320.1715 15.08839115 48671,6917.8830000000025,95.438,541.523,537.9730000000002,0.0
51784.0,STARLINK-3632,PAYLOAD,2023-01-04 16:01:49,15.08843731,0.0002822,53.2162,156.662,40.4421,319.6781,0.00014794,2.067e-05,0.0,0 STARLINK-3632,1 51784U 22017S   23004.66793538  .00002067  00000-0  14794-3 0  9996,2 51784  53.2162 156.6620 0002822  40.4421 319.6781 15.08843731 47153,6917.869000000002,95.437,541.686,537.7819999999998,0.0
51784.0,STARLINK-3632,PAYLOAD,2023-01-05 09:31:05,15.08816037,0.0002381999999999,53.2157,153.3911,44.8605,315.258,-0.00034696,-5.803e-05,0.0,0 STARLINK-3632,1 51784U 22017S   23005.39658673 -.00005803  00000-0 -34696-3 0  9993,2 51784  53.2157 153.3911 0002382  44.8605 315.2580 15.08816037 48910,6917.954000000002,95.439,541.466,538.1709999999998,0.0
51784.0,STARLINK-3632,PAYLOAD,2023-01-05 12:41:51,15.08816831,0.000233,53.2156,152.7962,48.9608,311.1585,-0.00028465,-4.813e-05,0.0,0 STARLINK-3632,1 51784U 22017S   23005.52907239 -.00004813  00000-0 -28465-3 0  9990,2 51784  53.2156 152.7962 0002330  48.9608 311.1585 15.08816831 47280,6917.951,95.439,541.428,538.2040000000002,0.0
51784.0,STARLINK-3632,PAYLOAD,2023-01-05 15:52:37,15.08817089,0.0002325,53.2158,152.2015,44.4631,315.6547,-0.00027421,-4.647e-05,0.0,0 STARLINK-3632,1 51784U 22017S   23005.66154953 -.00004647  00000-0 -27421-3 0  9998,2 51784  53.2158 152.2015 0002325  44.4631 315.6547 15.08817089 47303,6917.95,95.439,541.424,538.207,0.0
51784.0,STARLINK-3632,PAYLOAD,2023-01-06 06:11:06,15.08829167,0.0002459,53.2157,149.5253,46.0598,314.0597,0.00014924,2.087e-05,0.0,0 STARLINK-3632,1 51784U 22017S   23006.25771578  .00002087  00000-0  14924-3 0  9990,2 51784  53.2157 149.5253 0002459  46.0598 314.0597 15.08829167 49044,6917.914000000002,95.438,541.48,538.077,0.0
